[{"OBJECT_NAME":"STARLINK-6376","OBJECT_ID":"2023-099X","EPOCH":"2026-03-09T22:00:01.999584","MEAN_MOTION":15.14373336,"ECCENTRICITY":0.00016799,"INCLINATION":42.9997,"RA_OF_ASC_NODE":246.8696,"ARG_OF_PERICENTER":215.6032,"MEAN_ANOMALY":44.7192,"EPHEMERIS_TYPE":0,"CLASSIFICATION_TYPE":"U","NORAD_CAT_ID":57349,"ELEMENT_SET_NO":999,"REV_AT_EPOCH":578,"BSTAR":0.0065474134,"MEAN_MOTION_DOT":0.00124192,"MEAN_MOTION_DDOT":0},{"OBJECT_NAME":"OBJECT F","OBJECT_ID":"2024-205F","EPOCH":"2026-03-09T22:13:48.364608","MEAN_MOTION":15.17186787,"ECCENTRICITY":0.00083826,"INCLINATION":97.4176,"RA_OF_ASC_NODE":142.673,"ARG_OF_PERICENTER":234.765,"MEAN_ANOMALY":125.28,"EPHEMERIS_TYPE":0,"CLASSIFICATION_TYPE":"U","NORAD_CAT_ID":61899,"ELEMENT_SET_NO":999,"REV_AT_EPOCH":7324,"BSTAR":0.00063234837,"MEAN_MOTION_DOT":0.00012518,"MEAN_MOTION_DDOT":0}]
